H1 CPF 01  gfz 2021 10 22 12  7952 terrasarx 
H2 0702601  6201 31698    2021 10 22 12 59 42 2021 10 27 00 00 42   120 1 1  0 0 0
H9
10 0 59509  79902.000000  0    -258007.269  -1412248.393   6726746.403
10 0 59509  80022.000000  0    -692228.536   -605676.371   6816262.471
10 0 59509  80142.000000  0   -1100101.072    218830.244   6786031.984
10 0 59509  80262.000000  0   -1474326.712   1046363.338   6636582.120
10 0 59509  80382.000000  0   -1808453.228   1861838.887   6370520.695
10 0 59509  80502.000000  0   -2096986.052   2650271.073   5992493.663
10 0 59509  80622.000000  0   -2335479.358   3397048.170   5509108.740
10 0 59509  80742.000000  0   -2520605.333   4088205.311   4928826.447
10 0 59509  80862.000000  0   -2650201.394   4710690.716   4261818.720
10 0 59509  80982.000000  0   -2723292.982   5252619.268   3519795.203
10 0 59509  81102.000000  0   -2740091.418   5703507.695   2715799.429
10 0 59509  81222.000000  0   -2701966.605   6054485.122   1863978.764
10 0 59509  81342.000000  0   -2611395.548   6298474.815    979332.280
10 0 59509  81462.000000  0   -2471886.990   6430342.294     77440.925
10 0 59509  81582.000000  0   -2287884.603   6447005.866   -825814.711
10 0 59509  81702.000000  0   -2064651.279   6347506.808  -1714544.093
10 0 59509  81822.000000  0   -1808135.576   6133033.451  -2573137.910
10 0 59509  81942.000000  0   -1524824.910   5806899.717  -3386547.316
10 0 59509  82062.000000  0   -1221591.614   5374484.957  -4140549.076
10 0 59509  82182.000000  0    -905534.683   4843133.603  -4821993.494
10 0 59509  82302.000000  0    -583820.852   4222019.042  -5419028.415
10 0 59509  82422.000000  0    -263528.376   3521975.655  -5921298.438
10 0 59509  82542.000000  0      48503.377   2755300.903  -6320115.411
10 0 59509  82662.000000  0     345814.432   1935533.236  -6608596.723
10 0 59509  82782.000000  0     622452.521   1077212.509  -6781773.170
10 0 59509  82902.000000  0     873087.967    195624.037  -6836666.163
10 0 59509  83022.000000  0    1093112.896   -693469.108  -6772333.207
10 0 59509  83142.000000  0    1278723.236  -1574101.977  -6589880.925
10 0 59509  83262.000000  0    1426982.823  -2430386.204  -6292447.372
10 0 59509  83382.000000  0    1535869.837  -3246789.676  -5885155.375
10 0 59509  83502.000000  0    1604303.635  -4008416.152  -5375034.972
10 0 59509  83622.000000  0    1632151.483  -4701278.191  -4770911.714
10 0 59509  83742.000000  0    1620216.049  -5312556.198  -4083264.671
10 0 59509  83862.000000  0    1570202.620  -5830843.216  -3324055.827
10 0 59509  83982.000000  0    1484665.734  -6246368.165  -2506529.388
10 0 59509  84102.000000  0    1366937.793  -6551191.476  -1644984.821
10 0 59509  84222.000000  0    1221040.429  -6739368.538   -754527.137
10 0 59509  84342.000000  0    1051578.994  -6807076.424    149201.425
10 0 59509  84462.000000  0     863625.072  -6752698.598   1050302.541
10 0 59509  84582.000000  0     662588.092  -6576866.594   1932909.516
10 0 59509  84702.000000  0     454080.574  -6282456.180   2781476.854
10 0 59509  84822.000000  0     243779.289  -5874536.177   3581063.394
10 0 59509  84942.000000  0      37285.807  -5360273.310   4317600.565
10 0 59509  85062.000000  0    -160008.763  -4748797.987   4978142.796
10 0 59509  85182.000000  0    -343051.983  -4051031.965   5551095.608
10 0 59509  85302.000000  0    -507247.875  -3279483.559   6026417.258
10 0 59509  85422.000000  0    -648562.385  -2448013.333   6395790.036
10 0 59509  85542.000000  0    -763614.237  -1571579.054   6652757.679
10 0 59509  85662.000000  0    -849749.537   -665964.633   6792832.339
10 0 59509  85782.000000  0    -905099.366    252505.555   6813569.368
10 0 59509  85902.000000  0    -928618.813   1167261.182   6714607.311
10 0 59509  86022.000000  0    -920106.093   2061784.398   6497673.609
10 0 59509  86142.000000  0    -880202.340   2919907.453   6166556.251
10 0 59509  86262.000000  0    -810372.468   3726105.448   5727041.984
10 0 59509  86382.000000  0    -712866.915   4465779.877   5186820.330
10 0 59510    102.000000  0    -590664.902   5125527.553   4555355.642
10 0 59510    222.000000  0    -447400.576   5693392.130   3843726.213
10 0 59510    342.000000  0    -287272.398   6159087.717   3064433.191
10 0 59510    462.000000  0    -114940.234   6514197.693   2231184.928
10 0 59510    582.000000  0      64590.968   6752338.441   1358650.187
10 0 59510    702.000000  0     246097.498   6869280.086    462194.459
10 0 59510    822.000000  0     424268.619   6863026.676   -442397.561
10 0 59510    942.000000  0     593841.445   6733851.228  -1339209.259
10 0 59510   1062.000000  0     749733.395   6484283.618  -2212480.868
10 0 59510   1182.000000  0     887169.777   6119054.349  -3046892.927
10 0 59510   1302.000000  0    1001804.556   5644995.522  -3827839.278
10 0 59510   1422.000000  0    1089830.847   5070901.547  -4541684.147
10 0 59510   1542.000000  0    1148078.470   4407353.452  -5175997.775
10 0 59510   1662.000000  0    1174096.413   3666512.362  -5719766.140
10 0 59510   1782.000000  0    1166218.147   2861887.990  -6163573.407
10 0 59510   1902.000000  0    1123609.136   2008085.704  -6499754.013
10 0 59510   2022.000000  0    1046295.722   1120540.044  -6722512.853
10 0 59510   2142.000000  0     935175.234    215238.048  -6828016.112
10 0 59510   2262.000000  0     792007.400   -691564.475  -6814450.075
10 0 59510   2382.000000  0     619386.544  -1583628.745  -6682047.643
10 0 59510   2502.000000  0     420695.948  -2445015.277  -6433083.668
10 0 59510   2622.000000  0     200044.654  -3260361.672  -6071842.381
10 0 59510   2742.000000  0     -37813.715  -4015154.501  -5604551.882
10 0 59510   2862.000000  0    -287576.974  -4695986.872  -5039286.398
10 0 59510   2982.000000  0    -543505.059  -5290800.101  -4385838.619
10 0 59510   3102.000000  0    -799543.889  -5789104.968  -3655560.979
10 0 59510   3222.000000  0   -1049459.606  -6182177.058  -2861177.019
10 0 59510   3342.000000  0   -1286980.396  -6463221.446  -2016565.822
10 0 59510   3462.000000  0   -1505942.995  -6627503.521  -1136521.742
10 0 59510   3582.000000  0   -1700439.848  -6672440.430   -236492.845
10 0 59510   3702.000000  0   -1864963.519  -6597650.048    667695.789
10 0 59510   3822.000000  0   -1994544.907  -6404955.969   1560128.014
10 0 59510   3942.000000  0   -2084881.250  -6098347.874   2425085.905
10 0 59510   4062.000000  0   -2132450.218  -5683897.722   3247335.792
10 0 59510   4182.000000  0   -2134606.926  -5169633.989   4012403.795
10 0 59510   4302.000000  0   -2089661.747  -4565378.380   4706834.906
10 0 59510   4422.000000  0   -1996937.709  -3882550.027   5318431.070
10 0 59510   4542.000000  0   -1856806.408  -3133940.383   5836465.354
10 0 59510   4662.000000  0   -1670700.113  -2333464.387   6251865.785
10 0 59510   4782.000000  0   -1441100.842  -1495896.480   6557367.887
10 0 59510   4902.000000  0   -1171508.042   -636594.406   6747636.196
10 0 59510   5022.000000  0    -866385.606    228784.754   6819350.879
10 0 59510   5142.000000  0    -531088.261   1084568.821   6771261.834
10 0 59510   5262.000000  0    -171767.456   1915353.904   6604209.732
10 0 59510   5382.000000  0     204741.404   2706281.400   6321112.087
10 0 59510   5502.000000  0     591048.088   3443303.573   5926915.155
10 0 59510   5622.000000  0     979350.730   4113435.142   5428512.981
10 0 59510   5742.000000  0    1361591.422   4704986.278   4834632.682
10 0 59510   5862.000000  0    1729621.478   5207773.236   4155687.170
10 0 59510   5982.000000  0    2075373.009   5613300.588   3403597.449
10 0 59510   6102.000000  0    2391034.559   5914914.687   2591587.211
10 0 59510   6222.000000  0    2669223.926   6107922.692   1733947.541
10 0 59510   6342.000000  0    2903156.660   6189671.064    845780.139
10 0 59510   6462.000000  0    3086802.816   6159582.533    -57275.706
10 0 59510   6582.000000  0    3215030.367   6019152.112   -959326.100
10 0 59510   6702.000000  0    3283731.456   5771900.996  -1844510.626
10 0 59510   6822.000000  0    3289927.653   5423290.606  -2697288.518
10 0 59510   6942.000000  0    3231852.116   4980598.198  -3502717.924
10 0 59510   7062.000000  0    3109005.459   4452756.952  -4246720.677
10 0 59510   7182.000000  0    2922185.385   3850167.344  -4916326.727
10 0 59510   7302.000000  0    2673489.582   3184484.397  -5499895.587
10 0 59510   7422.000000  0    2366293.469   2468385.492  -5987310.744
10 0 59510   7542.000000  0    2005202.298   1715324.351  -6370144.815
10 0 59510   7662.000000  0    1595979.760    939276.878  -6641793.131
10 0 59510   7782.000000  0    1145455.828    154484.118  -6797576.787
10 0 59510   7902.000000  0     661412.773   -624804.699  -6834815.881
10 0 59510   8022.000000  0     152451.887  -1384585.789  -6752869.400
10 0 59510   8142.000000  0    -372155.294  -2111345.176  -6553143.912
10 0 59510   8262.000000  0    -902631.213  -2792292.956  -6239073.670
10 0 59510   8382.000000  0   -1428870.281  -3415585.918  -5816068.062
10 0 59510   8502.000000  0   -1940626.451  -3970532.194  -5291427.576
10 0 59510   8622.000000  0   -2427709.231  -4447777.454  -4674230.176
10 0 59510   8742.000000  0   -2880185.492  -4839469.232  -3975185.557
10 0 59510   8862.000000  0   -3288581.802  -5139393.748  -3206458.382
10 0 59510   8982.000000  0   -3644083.141  -5343083.245  -2381464.024
10 0 59510   9102.000000  0   -3938724.409  -5447891.118  -1514638.435
10 0 59510   9222.000000  0   -4165569.371  -5453031.908   -621185.288
10 0 59510   9342.000000  0   -4318871.672  -5359584.439    283194.893
10 0 59510   9462.000000  0   -4394213.778  -5170457.317   1182587.684
10 0 59510   9582.000000  0   -4388620.096  -4890316.805   2061154.223
10 0 59510   9702.000000  0   -4300640.297  -4525478.223   2903419.464
10 0 59510   9822.000000  0   -4130401.618  -4083765.007   3694552.355
10 0 59510   9942.000000  0   -3879629.045  -3574339.101   4420633.133
99
